STARLINK-2133           
1 47406U 21005BK  24103.45453140  .00001150  00000+0  96122-4 0  9995
2 47406  53.0547 277.1351 0001219 100.2334 259.8792 15.06389135178525
STARLINK-2134           
1 47407U 21005BL  24102.79842897 -.00004431  00000+0 -27871-3 0  9994
2 47407  53.0539 280.0795 0001381  91.5808 268.5339 15.06409457178423
STARLINK-2135           
1 47408U 21005BM  24103.63144368  .00001023  00000+0  87584-4 0  9997
2 47408  53.0529 276.3372 0001641 121.4492 238.6657 15.06392942178558
STARLINK-1782           
1 47548U 21009A   24103.63698387  .00002727  00000+0  20194-3 0  9996
2 47548  53.0549 256.3166 0001253  85.4679 274.6453 15.06392215176026
STARLINK-1806           
1 47549U 21009B   24103.63329771  .00002857  00000+0  21062-3 0  9994
2 47549  53.0545 256.3329 0001316  81.0488 279.0650 15.06393101176027
STARLINK-1909           
1 47550U 21009C   24103.64528252  .00000514  00000+0  53386-4 0  9995
2 47550  53.0547 246.2772 0001342  86.6971 273.4172 15.06382846176164
STARLINK-1938           
1 47551U 21009D   24103.63975051  .00008258  00000+0  57258-3 0  9992
2 47551  53.0537 266.3021 0001232  83.6402 276.4728 15.06402903175883
STARLINK-1940           
1 47552U 21009E   24103.64433778  .00001661  00000+0  13038-3 0  9998
2 47552  53.0546 256.2829 0001361  87.7075 272.4070 15.06402994176025
STARLINK-1953           
1 47554U 21009G   24103.64989117  .00001744  00000+0  13599-3 0  9997
2 47554  53.0539 276.2586 0001203  92.5600 267.5527 15.06390245175749
STARLINK-1954           
1 47555U 21009H   24103.62500410  .00002655  00000+0  19714-3 0  9998
2 47555  53.0546 266.3693 0001283  97.6276 262.4859 15.06389859175886
STARLINK-1955           
1 47556U 21009J   24103.92540299 -.00000794  00000+0 -34414-4 0  9990
2 47556  53.0538 285.0205 0001482  88.9114 271.2045 15.06391972176245
STARLINK-1956           
1 47557U 21009K   24103.49046412  .00002474  00000+0  18493-3 0  9994
2 47557  53.0542 286.9739 0001310  99.7506 260.3631 15.06391823175589
STARLINK-1957           
1 47558U 21009L   24103.60380899  .00001776  00000+0  13814-3 0  9994
2 47558  53.0540 256.4646 0001042  97.7015 262.4092 15.06392438176625
STARLINK-1958           
1 47559U 21009M   24103.56787740  .00001753  00000+0  13660-3 0  9990
2 47559  53.0551 246.6251 0001221  94.7051 265.4078 15.06387010176769
STARLINK-1959           
1 47560U 21009N   24103.55955255  .00002287  00000+0  17238-3 0  9997
2 47560  53.0552 246.6541 0001468 100.8325 259.2829 15.06393051176767
STARLINK-1960           
1 47561U 21009P   24103.61395165  .00005012  00000+0  35515-3 0  9990
2 47561  53.0539 266.4204 0001321  81.6362 278.4776 15.06397733176499
STARLINK-1961           
1 47562U 21009Q   24103.76137405 -.00000118  00000+0  10982-4 0  9993
2 47562  53.0542 265.7583 0001216  94.9365 265.1762 15.06389298175909
STARLINK-1962           
1 47563U 21009R   24103.45175156  .00001610  00000+0  12693-3 0  9992
2 47563  53.0536 267.1473 0001273  82.8445 277.2689 15.06396589175852
STARLINK-1963           
1 47564U 21009S   24103.58537923  .00002562  00000+0  19085-3 0  9990
2 47564  53.0548 256.5468 0001319  98.3393 261.7746 15.06389117176017
STARLINK-1964           
1 47565U 21009T   24103.64803947  .00001437  00000+0  11536-3 0  9993
2 47565  53.0545 256.2656 0001389  98.9300 261.1846 15.06389135176028
STARLINK-1965           
1 47566U 21009U   24103.64158509 -.00001143  00000+0 -57868-4 0  9996
2 47566  53.0555 246.2938 0001565  85.5607 274.5561 15.06382260176169
STARLINK-1966           
1 47567U 21009V   24103.94383617  .00001691  00000+0  13241-3 0  9992
2 47567  53.0547 284.9391 0001230  98.9645 261.1483 15.06391787176240
STARLINK-1967           
1 47568U 21009W   24103.50520809  .00001947  00000+0  14955-3 0  9998
2 47568  53.0548 286.9076 0001645  89.4757 270.6420 15.06413988175583
STARLINK-1969           
1 47570U 21009Y   24103.91667824  .00398763  00000+0  12253-1 0  9997
2 47570  53.0499 242.8247 0001130  54.9470 129.5956 15.31528428  5852
STARLINK-1970           
1 47571U 21009Z   24103.64067000  .00001601  00000+0  12640-3 0  9992
2 47571  53.0547 256.3000 0001314  87.6545 272.4595 15.06391286176021
STARLINK-1971           
1 47572U 21009AA  24103.62223317  .00000040  00000+0  21555-4 0  9998
2 47572  53.0546 256.3849 0001046  92.4794 267.6314 15.06392184176623
STARLINK-1975           
1 47573U 21009AB  24103.60012266  .00002808  00000+0  20734-3 0  9997
2 47573  53.0537 256.4818 0001416  92.9334 267.1817 15.06392067176619
STARLINK-1976           
1 47574U 21009AC  24103.48309156  .00001761  00000+0  13709-3 0  9992
2 47574  53.0549 287.0080 0001281 101.1662 258.9471 15.06393494175574
STARLINK-1977           
1 47575U 21009AD  24103.93646558  .00002034  00000+0  15544-3 0  9996
2 47575  53.0545 284.9731 0001289  97.8821 262.2314 15.06395284176244
STARLINK-1978           
1 47576U 21009AE  24103.63789170  .00000181  00000+0  31008-4 0  9997
2 47576  53.0524 246.3106 0001037  85.6515 274.4592 15.06393394176160
STARLINK-1979           
1 47577U 21009AF  24103.61257253  .00001755  00000+0  13673-3 0  9993
2 47577  53.0547 261.4255 0001222  92.9281 267.1848 15.06384163175959
STARLINK-1980           
1 47578U 21009AG  24103.60657751  .00002050  00000+0  15648-3 0  9993
2 47578  53.0544 266.4527 0001510  87.8975 272.2187 15.06394009176478
STARLINK-1981           
1 47579U 21009AH  24103.58906697  .00004239  00000+0  30334-3 0  9997
2 47579  53.0541 256.5314 0001131  74.1239 285.9874 15.06394276176011
STARLINK-1982           
1 47580U 21009AJ  24103.61026012  .00001150  00000+0  96087-4 0  9994
2 47580  53.0547 266.4351 0001300  95.4170 264.6967 15.06391417175872
STARLINK-1984           
1 47581U 21009AK  24103.58998993  .00003726  00000+0  26894-3 0  9996
2 47581  53.0545 246.5279 0001312  78.1495 281.9641 15.06390163176150
STARLINK-1986           
1 47582U 21009AL  24103.64343327  .00002531  00000+0  18879-3 0  9996
2 47582  53.0545 266.2869 0001268  86.5158 273.5976 15.06392785175883
STARLINK-1987           
1 47583U 21009AM  24103.62132083  .00000597  00000+0  58989-4 0  9997
2 47583  53.0539 266.3862 0001176  88.4138 271.6986 15.06403710176497
STARLINK-1989           
1 47585U 21009AP  24103.44808173  .00004286  00000+0  30650-3 0  9992
2 47585  53.0547 267.1661 0001317  83.3662 276.7476 15.06394084175859
STARLINK-1990           
1 47586U 21009AQ  24103.49783806  .00002169  00000+0  16448-3 0  9990
2 47586  53.0551 286.9417 0001380  99.8976 260.2168 15.06392817175581
STARLINK-1991           
1 47587U 21009AR  24103.62592704  .00003799  00000+0  27383-3 0  9991
2 47587  53.0534 256.3661 0001393  98.6196 261.4951 15.06392971176024
STARLINK-1993           
1 47588U 21009AS  24103.61763121  .00001994  00000+0  15272-3 0  9993
2 47588  53.0552 266.4027 0001364  97.3043 262.8101 15.06391585175883
STARLINK-1994           
1 47589U 21009AT  24103.63605975  .00002646  00000+0  19651-3 0  9998
2 47589  53.0549 266.3197 0001270  99.3247 260.7885 15.06390103175882
STARLINK-1995           
1 47590U 21009AU  24103.82588575  .00004070  00000+0  29196-3 0  9995
2 47590  53.0541 285.4685 0001276  83.9770 276.1364 15.06396628175630
STARLINK-1996           
1 47591U 21009AV  24103.63237474  .00004626  00000+0  32928-3 0  9998
2 47591  53.0540 266.3364 0001219  79.7496 280.3630 15.06396349175887
STARLINK-1997           
1 47592U 21009AW  24103.92908975  .00001975  00000+0  15142-3 0  9995
2 47592  53.0553 285.0058 0001223  87.1044 273.0085 15.06398237176249
STARLINK-1998           
1 47593U 21009AX  24103.50153974  .00009488  00000+0  65513-3 0  9995
2 47593  53.0534 286.9259 0000962 131.5206 228.5866 15.06390321175589
STARLINK-1999           
1 47594U 21009AY  24103.93277797  .00001938  00000+0  14897-3 0  9994
2 47594  53.0551 284.9923 0001314  82.5701 277.5438 15.06394779176246
STARLINK-2000           
1 47595U 21009AZ  24103.91803564  .00002410  00000+0  18063-3 0  9995
2 47595  53.0541 285.0549 0001236  92.9282 267.1848 15.06400041175647
STARLINK-2001           
1 47596U 21009BA  24103.92171486 -.00000658  00000+0 -25294-4 0  9997
2 47596  53.0540 285.0373 0001381  94.7118 265.4029 15.06394136176247
STARLINK-2002           
1 47597U 21009BB  24103.91434979  .00003785  00000+0  27283-3 0  9997
2 47597  53.0533 285.0732 0001301  87.5567 272.5571 15.06401427175645
STARLINK-2003           
1 47598U 21009BC  24103.59275501  .00001145  00000+0  95800-4 0  9995
2 47598  53.0552 256.5153 0001352  99.5191 260.5951 15.06388931176025
STARLINK-2004           
1 47599U 21009BD  24103.91667824  .00188332  00000+0  57158-2 0  9991
2 47599  53.0560 241.2185 0001064  56.2147 137.3979 15.32868963  5795
STARLINK-2005           
1 47600U 21009BE  24103.54207405  .00003410  00000+0  24773-3 0  9999
2 47600  53.0539 246.7128 0001384  80.0273 280.0872 15.06394547176151
STARLINK-2006           
1 47601U 21009BF  24103.58630419  .00002557  00000+0  19054-3 0  9996
2 47601  53.0553 246.5421 0001468  88.1762 271.9395 15.06389393176766
STARLINK-2007           
1 47602U 21009BG  24103.59829511  .00009298  00000+0  62827-3 0  9996
2 47602  53.0538 256.3926 0000335   7.0843 353.0151 15.07220363176013
STARLINK-2008           
1 47603U 21009BH  24102.95599308 -.00005336  00000+0 -33937-3 0  9995
2 47603  53.0557 289.3748 0001536 104.0039 256.1121 15.06423071175493
STARLINK-2021           
1 47604U 21009BJ  24103.61486809  .00003390  00000+0  24646-3 0  9994
2 47604  53.0540 256.4147 0001325  84.7875 275.3265 15.06389634176637
STARLINK-2024           
1 47606U 21009BL  24103.61855766  .00002194  00000+0  16611-3 0  9992
2 47606  53.0542 256.4010 0001318  85.5086 274.6053 15.06400631176026
STARLINK-2025           
1 47607U 21009BM  24103.62724593  .00000372  00000+0  43879-4 0  9990
2 47607  53.0553 251.1547 0001294  88.3329 271.7808 15.06395450176095
